{
    "links": {
        "self": "http://www.neowsapp.com/rest/v1/neo/3703546?api_key=iIulBulltgU6a56xZRHN4H3l9WmuAYTsLGpBGhQ2"
    },
    "id": "3703546",
    "neo_reference_id": "3703546",
    "name": "(2015 AM44)",
    "designation": "2015 AM44",
    "nasa_jpl_url": "http://ssd.jpl.nasa.gov/sbdb.cgi?sstr=3703546",
    "absolute_magnitude_h": 22.9,
    "estimated_diameter": {
        "kilometers": {
            "estimated_diameter_min": 0.0699125232,
            "estimated_diameter_max": 0.1563291544
        },
        "meters": {
            "estimated_diameter_min": 69.9125232246,
            "estimated_diameter_max": 156.3291544087
        },
        "miles": {
            "estimated_diameter_min": 0.0434416145,
            "estimated_diameter_max": 0.097138403
        },
        "feet": {
            "estimated_diameter_min": 229.3718026961,
            "estimated_diameter_max": 512.8909429502
        }
    },
    "is_potentially_hazardous_asteroid": false,
    "close_approach_data": [
        {
            "close_approach_date": "2009-01-06",
            "close_approach_date_full": "2009-Jan-06 06:25",
            "epoch_date_close_approach": 1231223100000,
            "relative_velocity": {
                "kilometers_per_second": "5.9865051687",
                "kilometers_per_hour": "21551.4186072083",
                "miles_per_hour": "13391.2134117956"
            },
            "miss_distance": {
                "astronomical": "1.8855805168",
                "lunar": "733.4908210352",
                "kilometers": "282078829.026779216",
                "miles": "175275656.7170405408"
            },
            "orbiting_body": "Juptr"
        },
        {
            "close_approach_date": "2015-01-24",
            "close_approach_date_full": "2015-Jan-24 22:02",
            "epoch_date_close_approach": 1422136920000,
            "relative_velocity": {
                "kilometers_per_second": "7.9749903521",
                "kilometers_per_hour": "28709.9652674969",
                "miles_per_hour": "17839.2559185733"
            },
            "miss_distance": {
                "astronomical": "0.1853509285",
                "lunar": "72.1015111865",
                "kilometers": "27728104.106122295",
                "miles": "17229444.951565871"
            },
            "orbiting_body": "Earth"
        }
    ],
    "orbital_data": {
        "orbit_id": "8",
        "orbit_determination_date": "2017-04-06 08:36:25",
        "first_observation_date": "2015-01-15",
        "last_observation_date": "2015-02-11",
        "data_arc_in_days": 27,
        "observations_used": 26,
        "orbit_uncertainty": "8",
        "minimum_orbit_intersection": ".183659",
        "jupiter_tisserand_invariant": "3.156",
        "epoch_osculation": "2457042.5",
        "eccentricity": ".5580243411005992",
        "semi_major_axis": "2.592926903461691",
        "inclination": "11.26813938125821",
        "ascending_node_longitude": "105.0995576825796",
        "orbital_period": "1525.049139820652",
        "perihelion_distance": "1.146010576635464",
        "perihelion_argument": "31.11578755357152",
        "aphelion_distance": "4.039843230287918",
        "perihelion_time": "2457057.610431717024",
        "mean_anomaly": "356.4330622036426",
        "mean_motion": ".236057967313982",
        "equinox": "J2000",
        "orbit_class": {
            "orbit_class_type": "AMO",
            "orbit_class_description": "Near-Earth asteroid orbits similar to that of 1221 Amor",
            "orbit_class_range": "1.017 AU < q (perihelion) < 1.3 AU"
        }
    },
    "is_sentry_object": false
}